[{"OBJECT_NAME":"KAZEOSAT 1","OBJECT_ID":"2014-024A","EPOCH":"2026-03-09T22:32:10.650624","MEAN_MOTION":14.4203561,"ECCENTRICITY":0.0001038,"INCLINATION":98.3278,"RA_OF_ASC_NODE":143.8269,"ARG_OF_PERICENTER":83.2576,"MEAN_ANOMALY":276.8732,"EPHEMERIS_TYPE":0,"CLASSIFICATION_TYPE":"U","NORAD_CAT_ID":39731,"ELEMENT_SET_NO":999,"REV_AT_EPOCH":62425,"BSTAR":8.1032563e-5,"MEAN_MOTION_DOT":2.23e-6,"MEAN_MOTION_DDOT":0},{"OBJECT_NAME":"FENGYUN 1C DEB","OBJECT_ID":"1999-025CAA","EPOCH":"2026-03-08T11:04:56.762976","MEAN_MOTION":14.38601009,"ECCENTRICITY":0.00230079,"INCLINATION":98.8781,"RA_OF_ASC_NODE":159.426,"ARG_OF_PERICENTER":149.7277,"MEAN_ANOMALY":210.5243,"EPHEMERIS_TYPE":0,"CLASSIFICATION_TYPE":"U","NORAD_CAT_ID":31620,"ELEMENT_SET_NO":999,"REV_AT_EPOCH":67076,"BSTAR":0.0036006604,"MEAN_MOTION_DOT":0.00011028,"MEAN_MOTION_DDOT":0}]
